NORAD_CAT_ID,OBJECT_NAME,OBJECT_TYPE,EPOCH,MEAN_MOTION,ECCENTRICITY,INCLINATION,RA_OF_ASC_NODE,ARG_OF_PERICENTER,MEAN_ANOMALY,BSTAR,MEAN_MOTION_DOT,MEAN_MOTION_DDOT,TLE_LINE0,TLE_LINE1,TLE_LINE2,SEMIMAJOR_AXIS,PERIOD,APOGEE,PERIGEE,DECAYED
53578.0,STARLINK-4556,PAYLOAD,2022-12-02 22:00:00,15.08806931,0.0001992,53.2187,8.3179,32.1717,274.9123,0.0020487,0.00032438,0.0,0 STARLINK-4556,1 53578U 22101BD  22336.91667824  .00032438  00000-0  20487-2 0  9996,2 53578  53.2187   8.3179 0001992  32.1717 274.9123 15.08806931  1309,6917.981,95.44,541.225,538.4680000000002,0.0
53578.0,STARLINK-4556,PAYLOAD,2022-12-03 06:00:00,15.08843918,0.0002064,53.2187,6.8226,32.5895,286.0594,-0.0011045,-0.00017826,0.0,0 STARLINK-4556,1 53578U 22101BD  22337.25001157 -.00017826  00000-0 -11045-2 0  9991,2 53578  53.2187   6.8226 0002064  32.5895 286.0594 15.08843918 16439,6917.868,95.437,541.161,538.306,0.0
53578.0,STARLINK-4556,PAYLOAD,2022-12-03 14:00:01,15.0883016,0.0002202,53.2181,5.3271,29.0561,301.1846,0.001542,0.00024332,0.0,0 STARLINK-4556,1 53578U 22101BD  22337.58334491  .00024332  00000-0  15420-2 0  9996,2 53578  53.2181   5.3271 0002202  29.0561 301.1846 15.08830160  1306,6917.91,95.438,541.299,538.252,0.0
53578.0,STARLINK-4556,PAYLOAD,2022-12-03 22:00:00,15.088146599999998,0.0001965,53.2181,3.8292,32.1283,309.718,0.0015983,0.00025223,0.0,0 STARLINK-4556,1 53578U 22101BD  22337.91667824  .00025223  00000-0  15983-2 0  9996,2 53578  53.2181   3.8292 0001965  32.1283 309.7180 15.08814660  1305,6917.958000000001,95.439,541.182,538.4630000000002,0.0
53578.0,STARLINK-4556,PAYLOAD,2022-12-04 06:00:00,15.088437400000002,0.0002076,53.2181,2.3339,31.7425,321.6745,-0.0012157,-0.00019586,0.0,0 STARLINK-4556,1 53578U 22101BD  22338.25001157 -.00019586  00000-0 -12157-2 0  9992,2 53578  53.2181   2.3339 0002076  31.7425 321.6745 15.08843740 16585,6917.869000000002,95.437,541.17,538.298,0.0
53578.0,STARLINK-4556,PAYLOAD,2022-12-04 14:00:01,15.08830629,0.0002221,53.2175,0.8382,28.7216,336.2864,0.0017865,0.00028252,0.0,0 STARLINK-4556,1 53578U 22101BD  22338.58334491  .00028252  00000-0  17865-2 0  9997,2 53578  53.2175   0.8382 0002221  28.7216 336.2864 15.08830629  1305,6917.909000000002,95.438,541.311,538.238,0.0
53578.0,STARLINK-4556,PAYLOAD,2022-12-04 22:00:00,15.08836842,0.0002,53.2175,359.3402,32.1921,344.4205,0.001083,0.00016989,0.0,0 STARLINK-4556,1 53578U 22101BD  22338.91667824  .00016989  00000-0  10830-2 0  9992,2 53578  53.2175 359.3402 0002000  32.1921 344.4205 15.08836842  1300,6917.89,95.438,541.139,538.371,0.0
53578.0,STARLINK-4556,PAYLOAD,2022-12-05 14:00:01,15.08851044,0.0002281,53.2172,356.349,28.7713,11.1032,0.00042449,6.476e-05,0.0,0 STARLINK-4556,1 53578U 22101BD  22339.58335648  .00006476  00000-0  42449-3 0  9994,2 53578  53.2172 356.3490 0002281  28.7713  11.1032 15.08851044  1309,6917.847,95.437,541.29,538.134,0.0
53578.0,STARLINK-4556,PAYLOAD,2022-12-05 16:00:00,15.08877686,0.0002258,53.2172,355.9744,30.5843,102.1229,-0.0034177,-0.00054329,0.0,0 STARLINK-4556,1 53578U 22101BD  22339.66667824 -.00054329  00000-0 -34177-2 0  9997,2 53578  53.2172 355.9744 0002258  30.5843 102.1229 15.08877686 16793,6917.765,95.435,541.192,538.068,0.0
53578.0,STARLINK-4556,PAYLOAD,2022-12-05 18:35:39,15.08842321,0.000217,53.2194,355.4877,32.8217,327.291,5.394e-05,5.700000000000001e-06,0.0,0 STARLINK-4556,1 53578U 22101BD  22339.77475742  .00000570  00000-0  53940-4 0  9993,2 53578  53.2194 355.4877 0002170  32.8217 327.2910 15.08842321 16810,6917.873000000001,95.437,541.239,538.237,0.0
53578.0,STARLINK-4556,PAYLOAD,2022-12-06 00:57:11,15.0884384,0.000207,53.2197,354.2979,28.4465,331.664,5.2658e-05,5.5e-06,0.0,0 STARLINK-4556,1 53578U 22101BD  22340.03971503  .00000550  00000-0  52658-4 0  9993,2 53578  53.2197 354.2979 0002070  28.4465 331.6640 15.08843840 16858,6917.869000000002,95.437,541.1659999999998,538.302,0.0
53578.0,STARLINK-4556,PAYLOAD,2022-12-06 10:29:30,15.08838788,0.0002165,53.2198,352.5141,30.3224,329.7893,5.3434e-05,5.62e-06,0.0,0 STARLINK-4556,1 53578U 22101BD  22340.43715747  .00000562  00000-0  53434-4 0  9999,2 53578  53.2198 352.5141 0002165  30.3224 329.7893 15.08838788 16911,6917.884,95.438,541.247,538.251,0.0
53578.0,STARLINK-4556,PAYLOAD,2022-12-06 18:26:27,15.0883016,0.000227,53.2192,351.027,34.9307,325.1834,-7.080899999999999e-05,-1.415e-05,0.0,0 STARLINK-4556,1 53578U 22101BD  22340.76836865 -.00001415  00000-0 -70809-4 0  9995,2 53578  53.2192 351.0270 0002270  34.9307 325.1834 15.08830160 16967,6917.91,95.438,541.346,538.205,0.0
53578.0,STARLINK-4556,PAYLOAD,2022-12-07 10:20:18,15.08835547,0.0002251,53.219,348.0552,35.2348,324.8793,-0.00012505,-2.278e-05,0.0,0 STARLINK-4556,1 53578U 22101BD  22341.43076989 -.00002278  00000-0 -12505-3 0  9999,2 53578  53.2190 348.0552 0002251  35.2348 324.8793 15.08835547 17068,6917.894,95.438,541.316,538.202,0.0
53578.0,STARLINK-4556,PAYLOAD,2022-12-08 00:38:45,15.08845303,0.0002234,53.2198,345.3777,34.8864,325.2275,1.4954e-05,-5e-07,0.0,0 STARLINK-4556,1 53578U 22101BD  22342.02691885 -.00000050  00000-0  14954-4 0  9999,2 53578  53.2198 345.3777 0002234  34.8864 325.2275 15.08845303 17155,6917.864000000001,95.437,541.275,538.184,0.0
53578.0,STARLINK-4556,PAYLOAD,2022-12-08 11:46:27,15.0884226,0.0002251,53.2194,343.2962,34.1544,325.9592,1.3524e-05,-7.3e-07,0.0,0 STARLINK-4556,1 53578U 22101BD  22342.49059910 -.00000073  00000-0  13524-4 0  9994,2 53578  53.2194 343.2962 0002251  34.1544 325.9592 15.08842260 17227,6917.873000000001,95.437,541.2959999999998,538.181,0.0
53578.0,STARLINK-4556,PAYLOAD,2022-12-09 11:37:15,15.08862708,0.0002017,53.2191,338.8395,14.7161,345.389,-0.00046578,-7.698e-05,0.0,0 STARLINK-4556,1 53578U 22101BD  22343.48420637 -.00007698  00000-0 -46578-3 0  9997,2 53578  53.2191 338.8395 0002017  14.7161 345.3890 15.08862708 17375,6917.811,95.436,541.071,538.281,0.0
53578.0,STARLINK-4556,PAYLOAD,2022-12-09 16:23:25,15.08819163,0.0001228,53.2193,337.9493,317.1128,42.9768,-0.00011889,-2.178e-05,0.0,0 STARLINK-4556,1 53578U 22101BD  22343.68293729 -.00002178  00000-0 -11889-3 0  9994,2 53578  53.2193 337.9493 0001228 317.1128  42.9768 15.08819163 17407,6917.944,95.439,540.659,538.96,0.0
53578.0,STARLINK-4556,PAYLOAD,2022-12-10 09:52:39,15.08849801,0.0002621,53.2206,334.6791,22.2444,337.8662,2.323e-05,8.1e-07,0.0,0 STARLINK-4556,1 53578U 22101BD  22344.41156616  .00000081  00000-0  23230-4 0  9992,2 53578  53.2206 334.6791 0002621  22.2444 337.8662 15.08849801 17513,6917.85,95.437,541.529,537.9019999999998,0.0
53578.0,STARLINK-4556,PAYLOAD,2022-12-10 11:28:03,15.08840764,0.0002797,53.2198,334.3787,25.8688,334.2443,-6.8293e-05,-1.375e-05,0.0,0 STARLINK-4556,1 53578U 22101BD  22344.47781544 -.00001375  00000-0 -68293-4 0  9999,2 53578  53.2198 334.3787 0002797  25.8688 334.2443 15.08840764 17526,6917.878000000002,95.438,541.678,537.808,0.0
53578.0,STARLINK-4556,PAYLOAD,2022-12-11 09:43:26,15.08839154,0.000175,53.2193,330.2128,34.7771,325.3335,0.00013948,1.932e-05,0.0,0 STARLINK-4556,1 53578U 22101BD  22345.40516885  .00001932  00000-0  13948-3 0  9990,2 53578  53.2193 330.2128 0001750  34.7771 325.3335 15.08839154 17662,6917.8830000000025,95.438,540.9590000000002,538.5369999999998,0.0
53578.0,STARLINK-4556,PAYLOAD,2022-12-12 07:58:51,15.08837319,0.000214,53.2192,326.0499,33.5857,326.527,4.332600000000001e-05,4.01e-06,0.0,0 STARLINK-4556,1 53578U 22101BD  22346.33253585  .00000401  00000-0  43326-4 0  9992,2 53578  53.2192 326.0499 0002140  33.5857 326.5270 15.08837319 17809,6917.889,95.438,541.234,538.273,0.0
53578.0,STARLINK-4556,PAYLOAD,2022-12-13 07:49:37,15.08842366,0.0002387,53.2195,321.5894,35.2184,324.8965,4.0223e-05,3.52e-06,0.0,0 STARLINK-4556,1 53578U 22101BD  22347.32613160  .00000352  00000-0  40223-4 0  9999,2 53578  53.2195 321.5894 0002387  35.2184 324.8965 15.08842366 17952,6917.873000000001,95.437,541.389,538.087,0.0
53578.0,STARLINK-4556,PAYLOAD,2022-12-13 15:46:33,15.08840682,0.0001958,53.2191,320.1019,38.8819,321.2313,-6.5309e-05,-1.327e-05,0.0,0 STARLINK-4556,1 53578U 22101BD  22347.65733419 -.00001327  00000-0 -65309-4 0  9992,2 53578  53.2191 320.1019 0001958  38.8819 321.2313 15.08840682 18003,6917.878000000002,95.438,541.0980000000002,538.389,0.0
53578.0,STARLINK-4556,PAYLOAD,2022-12-14 04:29:37,15.08844601,0.000222,53.2192,317.7225,37.9101,322.2048,8.808299999999999e-05,1.114e-05,0.0,0 STARLINK-4556,1 53578U 22101BD  22348.18724471  .00001114  00000-0  88083-4 0  9995,2 53578  53.2192 317.7225 0002220  37.9101 322.2048 15.08844601 18081,6917.866,95.437,541.2669999999998,538.196,0.0
53578.0,STARLINK-4556,PAYLOAD,2022-12-14 15:37:20,15.08841791,0.0002325,53.2184,315.6434,33.2291,326.8847,2.0293e-05,3.5e-07,0.0,0 STARLINK-4556,1 53578U 22101BD  22348.65092806  .00000035  00000-0  20293-4 0  9997,2 53578  53.2184 315.6434 0002325  33.2291 326.8847 15.08841791 18158,6917.875,95.437,541.3480000000002,538.132,0.0
53578.0,STARLINK-4556,PAYLOAD,2022-12-15 04:20:25,15.08837626,0.0002267,53.219,313.2632,38.6509,321.4645,-2.7666e-05,-7.29e-06,0.0,0 STARLINK-4556,1 53578U 22101BD  22349.18085254 -.00000729  00000-0 -27666-4 0  9998,2 53578  53.2190 313.2632 0002267  38.6509 321.4645 15.08837626 18233,6917.888000000001,95.438,541.321,538.184,0.0
53578.0,STARLINK-4556,PAYLOAD,2022-12-15 07:31:12,15.08836403,0.0002309,53.2187,312.6694,36.3323,323.7826,-3.4362e-05,-8.35e-06,0.0,0 STARLINK-4556,1 53578U 22101BD  22349.31333368 -.00000835  00000-0 -34362-4 0  9994,2 53578  53.2187 312.6694 0002309  36.3323 323.7826 15.08836403 18256,6917.891,95.438,541.354,538.159,0.0
53578.0,STARLINK-4556,PAYLOAD,2022-12-16 04:11:11,15.08847318,0.0002254,53.2188,308.8028,37.7536,322.3614,5.5862e-05,6.01e-06,0.0,0 STARLINK-4556,1 53578U 22101BD  22350.17444151  .00000601  00000-0  55862-4 0  9990,2 53578  53.2188 308.8028 0002254  37.7536 322.3614 15.08847318 18386,6917.858,95.437,541.2819999999998,538.164,0.0
